{
 "type": "FeatureCollection",
 "crs_note": "local",
 "source": "synthetic demo data",
 "features": [
  {
   "type": "Feature",
   "properties": {},
   "geometry": {
    "type": "Point",
    "coordinates": [
     -5,
     -30
    ]
   }
  },
  {
   "type": "Feature",
   "properties": {},
   "geometry": {
    "type": "Point",
    "coordinates": [
     560,
     -10
    ]
   }
  },
  {
   "type": "Feature",
   "properties": {},
   "geometry": {
    "type": "Point",
    "coordinates": [
     805,
     60
    ]
   }
  }
 ]
}