{
 "type": "FeatureCollection",
 "crs_note": "local",
 "source": "synthetic demo data",
 "features": [
  {
   "type": "Feature",
   "properties": {},
   "geometry": {
    "type": "Point",
    "coordinates": [
     100,
     8
    ]
   }
  },
  {
   "type": "Feature",
   "properties": {},
   "geometry": {
    "type": "Point",
    "coordinates": [
     350,
     -118
    ]
   }
  },
  {
   "type": "Feature",
   "properties": {},
   "geometry": {
    "type": "Point",
    "coordinates": [
     600,
     160
    ]
   }
  },
  {
   "type": "Feature",
   "properties": {},
   "geometry": {
    "type": "Point",
    "coordinates": [
     505,
     12
    ]
   }
  }
 ]
}